CUTE-1 (CO-55)          
1 27844U 03031E   23027.59299723  .00000482  00000+0  23521-3 0  9991
2 27844  98.6796  36.9107 0010063 167.1217 193.0220 14.22604690 15741
CUBESAT XI-IV (CO-57)   
1 27848U 03031J   23027.55674204  .00000403  00000+0  20145-3 0  9994
2 27848  98.6837  37.3394 0009650 181.6204 178.4944 14.22140015 15512
CUBESAT XI-V            
1 28895U 05043F   23027.33674786  .00002282  00000+0  43487-3 0  9994
2 28895  98.1314 160.7342 0016899 153.0611 207.1473 14.64914258920181
CUTE-1.7+APD II (CO-65) 
1 32785U 08021C   23027.45541184  .00004792  00000+0  49259-3 0  9995
2 32785  97.6887 356.7290 0011733 202.9177 157.1520 14.90747489799916
AAUSAT-II               
1 32788U 08021F   23027.46506148  .00009487  00000+0  76361-3 0  9990
2 32788  97.5547  10.4712 0010371  94.3727 265.8682 15.00126672801989
DELFI-C3 (DO-64)        
1 32789U 08021G   23027.58764534  .00031584  00000+0  13964-2 0  9991
2 32789  97.3216  51.5041 0006306 256.4989 103.5544 15.21618695805901
SEEDS II (CO-66)        
1 32791U 08021J   23027.37681522  .00005790  00000+0  54220-3 0  9997
2 32791  97.6400   1.9402 0013194 156.1163 204.0672 14.94367649800616
SWISSCUBE               
1 35932U 09051B   23027.59551842  .00001428  00000+0  32650-3 0  9993
2 35932  98.5408 254.4907 0008680  79.3906 280.8269 14.57254735708738
BEESAT-1                
1 35933U 09051C   23027.61968939  .00001234  00000+0  28389-3 0  9995
2 35933  98.5341 255.9744 0006887  90.0981 270.1006 14.57222761708892
ITUPSAT1                
1 35935U 09051E   23027.56966352  .00001137  00000+0  26762-3 0  9993
2 35935  98.5442 255.9163 0009172  94.3199 265.9046 14.56305177708493
TISAT 1                 
1 36799U 10035E   23027.56466065  .00006190  00000+0  57969-3 0  9999
2 36799  98.1558 251.7031 0013051  79.2266 281.0422 14.94382124681218
M-CUBED & EXP-1 PRIME   
1 37855U 11061F   23027.56283037  .00017712  00000+0  67888-3 0  9992
2 37855 101.7101 271.6205 0138351 108.2002 253.4333 15.18131177615165
AEROCUBE 4.5A           
1 38767U 12048K   23027.54891604  .00013263  00000+0  90450-3 0  9992
2 38767  64.6648 126.0168 0150354 200.0468 159.4704 14.97682526184305
AEROCUBE 4.5B           
1 38768U 12048L   23027.58426206  .00013333  00000+0  80924-3 0  9992
2 38768  64.6656  74.7959 0132276 195.0069 164.7109 15.03685582184799
STRAND-1                
1 39090U 13009E   23027.48583424  .00000464  00000+0  17645-3 0  9995
2 39090  98.3914 224.6650 0008468 330.4303  29.6403 14.35429965519539
BRITE-AUSTRIA           
1 39091U 13009F   23027.54542417  .00000308  00000+0  12209-3 0  9998
2 39091  98.3936 223.9283 0009985 336.4918  23.5810 14.35370955519574
SOMP                    
1 39134U 13015E   23027.48413216  .00042789  00000+0  10953-2 0  9992
2 39134  64.8581  42.2772 0023883 254.3364 105.5137 15.38879266541185
BEESAT-3                
1 39135U 13015F   23027.30940413  .00025942  00000+0  85233-3 0  9994
2 39135  64.8628  85.5245 0030596 253.2730 106.5045 15.31053764540714
BEESAT-2                
1 39136U 13015G   23027.79565833  .00024650  00000+0  85617-3 0  9998
2 39136  64.8718  93.6851 0026318 289.8266  70.0029 15.29397426540613
NEE-01 PEGASO           
1 39151U 13018B   23027.78322823  .00003252  00000+0  41853-3 0  9996
2 39151  97.9992 137.9314 0015419 246.7179 113.2411 14.81732564526894
ESTCUBE 1               
1 39161U 13021C   23027.76637370  .00002831  00000+0  44224-3 0  9992
2 39161  97.8876 103.9956 0010365  62.0620 298.1523 14.73555803522494
POPACS 1                
1 39268U 13055D   23027.33853993  .00019271  00000+0  46356-3 0  9995
2 39268  80.9972 357.2141 0535222 240.2528 114.4412 14.59240100485842
POPACS 2                
1 39269U 13055E   23027.04595407  .00016220  00000+0  42690-3 0  9995
2 39269  81.0086  61.6899 0626804  47.7529 317.5099 14.38113837482257
POPACS 3                
1 39270U 13055F   23027.65230551  .00010947  00000+0  32348-3 0  9999
2 39270  81.0125  98.2180 0676512 150.8000 213.2852 14.25125515481220
ZACUBE-1 (TSHEPISOSAT)  
1 39417U 13066B   23027.47477518  .00004567  00000+0  54596-3 0  9990
2 39417  97.6680 354.3716 0057275  31.5450 328.9177 14.83476275496323
WNISAT-1                
1 39423U 13066H   23027.62831057  .00001394  00000+0  28099-3 0  9990
2 39423  97.7213 257.2167 0173590 156.6005 204.3194 14.53818817487019
TRITON-1                
1 39427U 13066M   23027.79298346  .00003529  00000+0  54685-3 0  9992
2 39427  97.8300 319.1122 0108482 267.3261  91.5524 14.69905470491918
DELFI-N3XT              
1 39428U 13066N   23027.37326270  .00005987  00000+0  89720-3 0  9993
2 39428  97.8290 317.4334 0112631 281.5868  77.2714 14.70740710491429
GOMX-1                  
1 39430U 13066Q   23027.76150257  .00003077  00000+0  54555-3 0  9995
2 39430  97.7963 287.0332 0148966  57.5522 303.9987 14.60909721489039
CUBEBUG-2 (LO-74)       
1 39440U 13066AA  23027.36223270  .00003217  00000+0  43015-3 0  9993
2 39440  97.7570 340.9871 0078757 124.2514 236.6190 14.78013089493343
NEE-02 KRYSAOR          
1 39441U 13066AB  23027.30251615  .00002182  00000+0  30433-3 0  9992
2 39441  97.7676 337.9524 0080680 139.5715 221.1529 14.76457622493058
FUNCUBE-1 (AO-73)       
1 39444U 13066AE  23027.38113300  .00006252  00000+0  72207-3 0  9998
2 39444  97.6545 356.7361 0055499  18.7495 341.5747 14.84820329494738
UWE-3                   
1 39446U 13066AG  23027.33250911  .00003767  00000+0  47766-3 0  9995
2 39446  97.7173 347.2306 0069015  79.5097 281.3883 14.80614537493575
AEROCUBE 5A             
1 39465U 13072D   23027.13767511  .00150250  00000+0  44932-2 0  9991
2 39465 120.4781  81.5330 0138909 153.5552 207.2692 15.24645016183349
BRITE-CA1 (TORONTO)     
1 40020U 14033L   23027.65332860  .00001666  00000+0  28748-3 0  9994
2 40020  97.8024 180.6394 0084993 268.5764  90.5704 14.67431576460649
DUCHIFAT-1              
1 40021U 14033M   23027.81996926  .00008768  00000+0  80524-3 0  9992
2 40021  98.0409 347.7182 0012381  28.7068 331.4830 14.95020191468199
NANOSATC-BR1            
1 40024U 14033Q   23027.81774066  .00007636  00000+0  72943-3 0  9993
2 40024  98.0129 339.8196 0012339  36.1839 324.0212 14.93511792467966
QB50P1                  
1 40025U 14033R   23027.32872232  .00006228  00000+0  61957-3 0  9993
2 40025  97.9833 331.9016 0013023  46.9222 313.3084 14.91959496467128
QB50P2                  
1 40032U 14033Y   23027.78185804  .00005740  00000+0  58130-3 0  9990
2 40032  97.9565 326.8288 0012423  43.8259 316.3943 14.91285847467557
PERSEUS-M2              
1 40037U 14033AD  23027.73920533  .00002430  00000+0  27240-3 0  9997
2 40037  97.9045 313.8147 0015505  64.8859 295.3964 14.87679091466964
PERSEUS-M1              
1 40039U 14033AF  23027.32251099  .00002481  00000+0  28066-3 0  9991
2 40039  97.8923 310.7171 0015390  65.4382 294.8436 14.87290925466270
POLYITAN-1              
1 40042U 14033AJ  23027.32112949  .00007195  00000+0  70834-3 0  9992
2 40042  97.9941 333.4394 0014762  38.5389 321.6880 14.92307889467013
TIGRISAT                
1 40043U 14033AK  23027.46075508  .00002716  00000+0  39340-3 0  9998
2 40043  97.6553 209.7455 0059029 149.2840 211.1847 14.75675941462659
AEROCUBE 6A             
1 40045U 14033AM  23027.48560827  .00003579  00000+0  49832-3 0  9990
2 40045  97.6558 219.1511 0056667 135.5327 225.0453 14.77258182462841
AEROCUBE 6B             
1 40046U 14033AN  23027.52234290  .00004867  00000+0  66498-3 0  9996
2 40046  97.6488 217.6004 0055323 133.0244 227.5622 14.77946126463245
UKUBE-1                 
1 40074U 14037F   23027.66605982  .00006197  00000+0  70448-3 0  9994
2 40074  98.3584 284.8528 0002924 299.4854  60.5970 14.86637567463361
BRITE-PL2 (HEWELIUSZ)   
1 40119U 14049B   23027.26228081  .00002328  00000+0  27364-3 0  9995
2 40119  97.8808 125.6698 0016003 227.1011 132.8861 14.85759570457239
FIREBIRD 4              
1 40378U 15003C   23027.34970161  .00057614  00000+0  12110-2 0  9995
2 40378  99.0783 308.8762 0076007 342.6445  17.2200 15.42025248442759
GRIFEX                  
1 40379U 15003D   23027.67132992  .00028418  00000+0  83871-3 0  9997
2 40379  99.0838 291.9746 0101986  32.8061 327.9451 15.29866416441823
CP10 (EXOCUBE)          
1 40380U 15003E   23027.52396337  .00019849  00000+0  67107-3 0  9990
2 40380  99.0931 283.2367 0113876  61.6321 299.6338 15.24602870441233
EXACTVIEW 9             
1 40936U 15052G   23024.46517748  .00003629  00000+0  40578-3 0  9994
2 40936   6.0049  35.5856 0009826  45.0500 315.0424 14.77752265395950
AEROCUBE 5C             
1 40965U 15058B   23027.58172962  .00002905  00000+0  33393-3 0  9996
2 40965  64.7733 110.4802 0167631 124.7583 236.9435 14.78177791182056
AEROCUBE 7              
1 40966U 15058C   23027.60231045  .00003502  00000+0  39368-3 0  9990
2 40966  64.7724 107.1799 0165416 124.5802 237.1038 14.78905924182066
ATHENOXAT 1             
1 41168U 15077C   23026.90668494  .00059707  00000+0  18884-2 0  9997
2 41168  14.9812 225.1105 0006906 156.7222 242.3725 15.30919566394465
GALASSIA                
1 41170U 15077E   23026.86389645  .00031789  00000+0  11217-2 0  9996
2 41170  14.9862 220.3648 0008284 178.7315 181.3030 15.27121557394338
VELOX-II                
1 41171U 15077F   23026.12832011  .00020399  00000+0  87016-3 0  9992
2 41171  14.9915 312.5652 0007270 338.8091  21.1930 15.20454469393491
HORYU-4                 
1 41340U 16012D   23027.14957133  .00008564  00000+0  57760-3 0  9999
2 41340  31.0056   8.8115 0012826 267.5437  92.3732 15.05280694381430
E-ST@R-II               
1 41459U 16025D   23027.78877453  .00034437  00000+0  12637-2 0  9991
2 41459  98.1909 215.7871 0126767 224.8718 134.2180 15.20552111371499
AAUSAT 4                
1 41460U 16025E   23027.53461440  .00066432  00000+0  18338-2 0  9995
2 41460  98.1749 224.3742 0097044 193.0801 224.8632 15.32151430372076
